     2.100          NAVIGATION                              RINEX VERSION / TYPE
fic2rin                                 11/24/2012 00:33:45 PGM / RUN BY / DATE
                                                            END OF HEADER
 9 12 11 23  6  0  0.0  .201658811420D-03  .261479726760D-11  .000000000000D+00
     .910000000000D+02 -.676875000000D+02  .392552065655D-08  .238317155538D+01
    -.354647636414D-05  .170409104321D-01  .804662704468D-05  .515284955597D+04
     .453600000000D+06  .201165676117D-06 -.123081234823D+01 -.108033418655D-06
     .984335053346D+00  .233593750000D+03  .163287745718D+01 -.753888545341D-08
    -.224295057075D-09  .100000000000D+01  .171500000000D+04  .000000000000D+00
     .340000000000D+01  .000000000000D+00 -.558793544769D-08  .910000000000D+02
     .446406000000D+06  .400000000000D+01
10 12 11 23  6  0  0.0 -.594649463892D-04 -.136424205266D-11  .000000000000D+00
     .270000000000D+02  .827812500000D+02  .485413076546D-08  .382480705708D+00
     .440515577793D-05  .120036570588D-01  .830367207527D-05  .515374224663D+04
     .453600000000D+06 -.651925802231D-07  .298307274207D+01  .162050127983D-06
     .945010988827D+00  .211875000000D+03  .775318666609D+00 -.840535011657D-08
     .167506977338D-09  .100000000000D+01  .171500000000D+04  .000000000000D+00
     .240000000000D+01  .000000000000D+00 -.279396772385D-08  .270000000000D+02
     .446406000000D+06  .400000000000D+01
11 12 11 23  6  0  0.0 -.326036941260D-03 -.386535248253D-11  .000000000000D+00
     .650000000000D+02 -.437500000000D+02  .606775274626D-08  .305686037700D+01
    -.226683914661D-05  .137651668629D-01  .828690826893D-05  .515368349075D+04
     .453600000000D+06  .132247805595D-06  .163275601889D+01 -.135973095894D-06
     .888023317873D+00  .177093750000D+03  .112383222853D+01 -.859250076929D-08
    -.359657838335D-09  .100000000000D+01  .171500000000D+04  .000000000000D+00
     .240000000000D+01  .000000000000D+00 -.116415321827D-07  .650000000000D+02
     .446406000000D+06  .400000000000D+01
12 12 11 23  6  0  0.0  .103098805994D-03  .204636307899D-11  .000000000000D+00
     .107000000000D+03  .668750000000D+01  .399480925698D-08  .256931527208D+01
     .305473804474D-06  .403542222921D-02  .871904194355D-05  .515367479134D+04
     .453600000000D+06 -.152736902237D-06 -.149023729905D+00  .745058059692D-08
     .982296721310D+00  .221375000000D+03  .142538969549D+00 -.772710757933D-08
     .312870175156D-09  .100000000000D+01  .171500000000D+04  .000000000000D+00
     .340000000000D+01  .000000000000D+00 -.121071934700D-07  .107000000000D+03
     .446406000000D+06  .400000000000D+01
13 12 11 23  6  0  0.0  .165274832398D-03 -.272848410532D-11  .000000000000D+00
     .410000000000D+02 -.334375000000D+01  .437196782429D-08 -.103581266969D+01
    -.279396772385D-06  .479033542797D-02  .407174229622D-05  .515358654976D+04
     .453600000000D+06 -.502914190292D-07 -.217547135604D+01  .111758708954D-07
     .983687902275D+00  .318656250000D+03  .207510529964D+01 -.822998566908D-08
    -.278583032673D-10  .100000000000D+01  .171500000000D+04  .000000000000D+00
     .240000000000D+01  .000000000000D+00 -.111758708954D-07  .410000000000D+02
     .446406000000D+06  .400000000000D+01
14 12 11 23  6  0  0.0  .217190477997D-03  .568434188608D-12  .000000000000D+00
     .920000000000D+02  .687500000000D+00  .450483050142D-08 -.835908998622D+00
     .216066837311D-06  .682023609988D-02  .412948429585D-05  .515367181587D+04
     .453600000000D+06 -.596046447754D-07 -.220343065076D+01  .119209289551D-06
     .976460191658D+00  .309937500000D+03 -.202117736281D+01 -.827498754359D-08
    -.407159816984D-10  .100000000000D+01  .171500000000D+04  .000000000000D+00
     .340000000000D+01  .000000000000D+00 -.884756445885D-08  .920000000000D+02
     .446406000000D+06  .400000000000D+01
15 12 11 23  6  0  0.0 -.100341625512D-03 -.909494701773D-12  .000000000000D+00
     .460000000000D+02  .114687500000D+02  .520700260684D-08 -.124741796792D+01
     .374391674995D-06  .497725687455D-02  .308454036713D-05  .515366755295D+04
     .453600000000D+06  .372529029846D-07 -.229720045635D+01 -.949949026108D-07
     .943242765596D+00  .307968750000D+03  .612717475514D-01 -.859321508476D-08
     .792890169915D-10  .100000000000D+01  .171500000000D+04  .000000000000D+00
     .240000000000D+01  .000000000000D+00 -.102445483208D-07  .460000000000D+02
     .446406000000D+06  .400000000000D+01
16 12 11 23  6  0  0.0 -.249932054430D-03 -.568434188608D-12  .000000000000D+00
     .860000000000D+02  .906250000000D+01  .408231290186D-08  .314435499695D+00
     .398606061935D-06  .659098580945D-02  .839494168758D-05  .515378850174D+04
     .453600000000D+06  .117346644402D-06 -.130757162766D+00  .223517417908D-07
     .983061098932D+00  .227250000000D+03  .240779901907D-01 -.790961518151D-08
     .283226083217D-09  .100000000000D+01  .171500000000D+04  .000000000000D+00
     .240000000000D+01  .000000000000D+00 -.977888703346D-08  .860000000000D+02
     .446406000000D+06  .400000000000D+01
18 12 11 23  6  0  0.0  .225953292102D-03  .181898940355D-11  .000000000000D+00
     .750000000000D+02  .762500000000D+02  .522307470488D-08  .866091279287D+00
     .399164855480D-05  .136155150831D-01  .827759504318D-05  .515375117493D+04
     .453600000000D+06 -.204890966415D-06  .296910176909D+01  .800937414169D-07
     .928792220267D+00  .203156250000D+03 -.213645910812D+01 -.862857370044D-08
     .507163982558D-10  .100000000000D+01  .171500000000D+04  .000000000000D+00
     .240000000000D+01  .000000000000D+00 -.107102096081D-07  .750000000000D+02
     .446406000000D+06  .400000000000D+01
19 12 11 23  6  0  0.0 -.324649270624D-03 -.341060513165D-11  .000000000000D+00
     .850000000000D+02 -.264062500000D+02  .475591238856D-08 -.137828658603D+01
    -.136531889439D-05  .867120316252D-02  .589154660702D-05  .515363443947D+04
     .453600000000D+06  .428408384323D-07  .960111164872D+00 -.134110450745D-06
     .961166846057D+00  .266406250000D+03  .272481417145D+00 -.817784063989D-08
    -.642883921553D-10  .100000000000D+01  .171500000000D+04  .000000000000D+00
     .240000000000D+01  .000000000000D+00 -.144354999065D-07  .850000000000D+02
     .446406000000D+06  .400000000000D+01
20 12 11 23  6  0  0.0  .742040574551D-04  .113686837722D-11  .000000000000D+00
     .290000000000D+02  .867812500000D+02  .514342853016D-08  .138369537160D+01
     .444054603577D-05  .529592111707D-02  .876933336258D-05  .515359701347D+04
     .453600000000D+06 -.614672899246D-07  .291552773262D+01 -.596046447754D-07
     .929385001987D+00  .191625000000D+03  .127574896964D+01 -.847392440154D-08
     .220009164265D-09  .100000000000D+01  .171500000000D+04  .000000000000D+00
     .240000000000D+01  .000000000000D+00 -.791624188423D-08  .290000000000D+02
     .446406000000D+06  .400000000000D+01
21 12 11 23  6  0  0.0 -.263943336904D-03 -.238742359215D-11  .000000000000D+00
     .390000000000D+02 -.249687500000D+02  .502520932014D-08  .198026089295D+01
    -.155344605446D-05  .194784689229D-01  .978261232376D-05  .515377342796D+04
     .453600000000D+06 -.277534127235D-06  .191995930585D+01 -.383704900742D-06
     .931107580711D+00  .178468750000D+03 -.220254036270D+01 -.819069831832D-08
    -.270368404786D-09  .100000000000D+01  .171500000000D+04  .000000000000D+00
     .240000000000D+01  .000000000000D+00 -.111758708954D-07  .390000000000D+02
     .446406000000D+06  .400000000000D+01
23 12 11 23  6  0  0.0  .141200609505D-03 -.386535248253D-11  .000000000000D+00
     .940000000000D+02  .600000000000D+01  .488806075021D-08 -.175540934257D+01
     .447034835815D-07  .812735687941D-02  .350177288055D-05  .515378352737D+04
     .453600000000D+06  .447034835815D-07 -.225880231511D+01 -.726431608200D-07
     .958056559336D+00  .310468750000D+03 -.291753283155D+01 -.843642283945D-08
     .807176479283D-10  .100000000000D+01  .171500000000D+04  .000000000000D+00
     .240000000000D+01  .000000000000D+00 -.204890966415D-07  .940000000000D+02
     .446406000000D+06  .400000000000D+01
24 12 11 23  6  0  0.0  .352971255779D-05 -.568434188608D-12  .000000000000D+00
     .920000000000D+02 -.588437500000D+02  .454018911710D-08 -.190603992999D+01
    -.308267772198D-05  .200284994207D-03  .821612775326D-05  .515372381592D+04
     .453600000000D+06 -.223517417908D-07 -.123179028117D+01 -.186264514923D-07
     .959263775427D+00  .222093750000D+03 -.448933114312D+00 -.809962309610D-08
    -.129291099779D-09  .100000000000D+01  .171500000000D+04  .000000000000D+00
     .340000000000D+01  .000000000000D+00  .465661287308D-08  .920000000000D+02
     .446406000000D+06  .400000000000D+01
25 12 11 23  6  0  0.0  .525610521436D-04  .193267624127D-11  .000000000000D+00
     .750000000000D+02  .584375000000D+01  .431946563737D-08  .150775728058D+01
     .325962901115D-06  .185076787602D-02  .866875052452D-05  .515363078499D+04
     .453600000000D+06 -.633299350739D-07 -.185151046319D+00  .949949026108D-07
     .971135607262D+00  .216562500000D+03  .678093308074D+00 -.796711757671D-08
     .297512392585D-09  .100000000000D+01  .171500000000D+04  .000000000000D+00
     .240000000000D+01  .000000000000D+00  .512227416039D-08  .750000000000D+02
     .446406000000D+06  .400000000000D+01
26 12 11 23  6  0  0.0 -.200206413865D-03  .135287336889D-10  .000000000000D+00
     .630000000000D+02 -.100000000000D+01  .427624955153D-08 -.190870401499D+01
     .800937414169D-07  .208729591686D-01  .300630927086D-05  .515365480995D+04
     .453600000000D+06  .396743416786D-06 -.218216599979D+01  .931322574615D-08
     .981191261412D+00  .325406250000D+03  .121113779412D+01 -.789140013706D-08
     .703600736366D-10  .100000000000D+01  .171500000000D+04  .000000000000D+00
     .240000000000D+01  .000000000000D+00 -.605359673500D-08  .630000000000D+02
     .446406000000D+06  .400000000000D+01
